STARLINK-32431          
1 61256U 24175P   26183.81228948 -.00001467  00000+0 -32307-4 0  9999
2 61256  53.1603  18.3000 0000992  79.0147 281.0967 15.34382641 99097
STARLINK-32432          
1 61257U 24175Q   26183.80598397 -.00002483  00000+0 -62422-4 0  9997
2 61257  53.1611  18.2615 0001643  89.7430 270.3761 15.34379777 99094
STARLINK-32382          
1 61258U 24175R   26182.81629869  .00002154  00000+0  74844-4 0  9991
2 61258  53.1607  22.7474 0001134 113.3436 246.7686 15.34403908 98948
STARLINK-32435          
1 61259U 24175S   26183.84375535 -.00006615  00000+0 -18497-3 0  9993
2 61259  53.1611  17.7890 0000341   7.8708 352.2300 15.34379189 99106
STARLINK-32474          
1 61260U 24175T   26183.82491208 -.00000317  00000+0  17536-5 0  9996
2 61260  53.1592  18.3766 0000981  97.9724 262.1390 15.34387881 99097
STARLINK-32447          
1 61261U 24175U   26183.81860339 -.00000925  00000+0 -16271-4 0  9991
2 61261  53.1603  18.3379 0000507  85.6481 274.4579 15.34385652 99098
STARLINK-32446          
1 61262U 24175V   26183.58531708  .00000689  00000+0  31525-4 0  9995
2 61262  53.1616  19.0195 0000931 115.4133 244.6966 15.34393649 99065
HULIANWAN GAOGUI-03 (H*)
1 61503U 24181A   26183.85244291 -.00000230  00000+0  00000+0 0  9990
2 61503   0.0480 356.6404 0001469  97.4906  56.5196  1.00270663  6982
STARLINK-32174          
1 61509U 24183A   26183.75504512 -.00001109  00000+0 -21731-4 0  9998
2 61509  53.1599 314.1931 0000976 141.8075 218.2996 15.34376308 97468
STARLINK-32139          
1 61510U 24183B   26183.78869226  .00000648  00000+0  32638-4 0  9992
2 61510  53.1576 327.1956 0001267  95.4861 264.6285 15.31698200 97288
STARLINK-32140          
1 61511U 24183C   26183.11751222 -.00000466  00000+0 -32424-5 0  9990
2 61511  53.1607 330.1160 0001845  77.6795 282.4413 15.31703445 97183
STARLINK-32201          
1 61512U 24183D   26183.63317323  .00000996  00000+0  40613-4 0  9992
2 61512  53.1609 314.8549 0000938  68.6191 291.4911 15.34397444 97430
STARLINK-32030          
1 61513U 24183E   26183.79354501 -.00002246  00000+0 -63743-4 0  9990
2 61513  53.1558 327.9305 0001482  98.9692 261.1477 15.30182173 97276
STARLINK-31837          
1 61514U 24183F   26183.78088201 -.00002040  00000+0 -56803-4 0  9992
2 61514  53.1616 327.8400 0001511  83.6451 276.4722 15.30179152 97279
STARLINK-32136          
1 61515U 24183G   26183.80268317  .00000012  00000+0  12149-4 0  9994
2 61515  53.1607 327.2800 0001281  96.4235 263.6912 15.31704564 97286
STARLINK-32047          
1 61516U 24183H   26183.12684386  .00002459  00000+0  90966-4 0  9998
2 61516  53.1611 330.1619 0000513 103.2530 256.8529 15.31699107 97188
STARLINK-31756          
1 61517U 24183J   26183.83336806  .00076309  00000+0  22505-2 0  9995
2 61517  53.1609 327.7771 0001585  60.8988 113.1808 15.34346993  5800
STARLINK-32172          
1 61518U 24183K   26183.12217526 -.00000931  00000+0 -18250-4 0  9999
2 61518  53.1607 330.1310 0000722 103.5864 256.5218 15.31700866 97185
STARLINK-32338          
1 61519U 24183L   26183.83336806 -.01203820  00000+0 -29412-1 0  9993
2 61519  53.1589 320.0657 0000962  39.5135  97.4313 15.43163258  5911
STARLINK-32306          
1 61520U 24183M   26183.79339296  .00061986  00000+0  20004-2 0  9997
2 61520  53.1603 327.2059 0001588 162.1477 197.9581 15.31576609 97281
STARLINK-32297          
1 61521U 24183N   26183.82607677  .00007920  00000+0  27876-3 0  9996
2 61521  53.1641 327.4052 0000510 281.2962  78.7982 15.30253747 97280
STARLINK-32260          
1 61522U 24183P   26183.78042534  .00028020  00000+0  87457-3 0  9992
2 61522  53.1612 327.1200 0001278 332.5964  27.4971 15.33017657 97285
STARLINK-32305          
1 61523U 24183Q   26183.79037196 -.00002212  00000+0 -62615-4 0  9999
2 61523  53.1631 327.8975 0001337 208.2769 151.8160 15.30177516 97270
STARLINK-32296          
1 61524U 24183R   26183.83060382 -.00003649  00000+0 -10591-3 0  9998
2 61524  53.1564 326.7292 0001636  73.4020 286.7161 15.31685934 97290
STARLINK-32298          
1 61525U 24183S   26183.78402376 -.00000843  00000+0 -15396-4 0  9998
2 61525  53.1619 327.1446 0000979  90.2203 269.8910 15.31697029 97288
STARLINK-32293          
1 61526U 24183T   26183.83336806  .00069750  00000+0  21148-2 0  9999
2 61526  53.1606 327.9002 0001403  74.1132  58.6743 15.33514013  5859
STARLINK-32313          
1 61527U 24183U   26183.80724784  .00000026  00000+0  13020-4 0  9996
2 61527  53.1609 327.9959 0001531  84.4037 275.7139 15.30195021 97273
STARLINK-32319          
1 61528U 24183V   26183.79811792  .00001466  00000+0  59041-4 0  9993
2 61528  53.1625 327.9417 0001507  89.8547 270.2627 15.31681342 97278
STARLINK-32351          
1 61529U 24183W   26183.12390880  .00002909  00000+0  11028-3 0  9996
2 61529  53.1622 328.0278 0001266  93.3277 266.7869 15.30203598 97219
STARLINK-32261          
1 61530U 24183X   26183.67686153 -.00000726  00000+0 -11634-4 0  9990
2 61530  53.1602 327.9161 0001557  81.2335 278.8843 15.31696516 97260
