OBJECT_NAME,OBJECT_ID,EPOCH,MEAN_MOTION,ECCENTRICITY,INCLINATION,RA_OF_ASC_NODE,ARG_OF_PERICENTER,MEAN_ANOMALY,EPHEMERIS_TYPE,CLASSIFICATION_TYPE,NORAD_CAT_ID,ELEMENT_SET_NO,REV_AT_EPOCH,BSTAR,MEAN_MOTION_DOT,MEAN_MOTION_DDOT
STARLINK-32431,2024-175P,2026-07-02T19:29:41.811072,15.34382641,.0000992,53.1603,18.3000,79.0147,281.0967,0,U,61256,999,9909,-.32307E-4,-.1467E-4,0
STARLINK-32432,2024-175Q,2026-07-02T19:20:37.015008,15.34379777,.0001643,53.1611,18.2615,89.7430,270.3761,0,U,61257,999,9909,-.62422E-4,-.2483E-4,0
STARLINK-32382,2024-175R,2026-07-01T19:35:28.206816,15.34403908,.00011342,53.1607,22.7474,113.3436,246.7686,0,U,61258,999,9894,.74843566E-4,.2154E-4,0
STARLINK-32435,2024-175S,2026-07-02T20:15:00.462240,15.34379189,.0000341,53.1611,17.7890,7.8708,352.2300,0,U,61259,999,9910,-.18497E-3,-.6615E-4,0
STARLINK-32474,2024-175T,2026-07-02T19:47:52.403712,15.34387881,.0000981,53.1592,18.3766,97.9724,262.1390,0,U,61260,999,9909,.17536E-5,-.317E-5,0
STARLINK-32447,2024-175U,2026-07-02T19:38:47.332896,15.34385652,.0000507,53.1603,18.3379,85.6481,274.4579,0,U,61261,999,9909,-.16271E-4,-.925E-5,0
STARLINK-32446,2024-175V,2026-07-02T14:02:51.395712,15.34393649,.0000931,53.1616,19.0195,115.4133,244.6966,0,U,61262,999,9906,.31525E-4,.689E-5,0
HULIANWAN GAOGUI-03 (HG-03),2024-181A,2026-07-02T20:27:31.067424,1.00270663,.0001469,0.0480,356.6404,97.4906,56.5196,0,U,61503,999,698,0,-.23E-5,0
STARLINK-32174,2024-183A,2026-07-02T18:07:15.898368,15.34376308,.0000976,53.1599,314.1931,141.8075,218.2996,0,U,61509,999,9746,-.21731E-4,-.1109E-4,0
STARLINK-32139,2024-183B,2026-07-02T18:55:43.011264,15.31698200,.0001267,53.1576,327.1956,95.4861,264.6285,0,U,61510,999,9728,.32638E-4,.648E-5,0
STARLINK-32140,2024-183C,2026-07-02T02:49:13.055808,15.31703445,.00018457,53.1607,330.1160,77.6795,282.4413,0,U,61511,999,9718,-.3242396E-5,-.466E-5,0
STARLINK-32201,2024-183D,2026-07-02T15:11:46.167072,15.34397444,.0000938,53.1609,314.8549,68.6191,291.4911,0,U,61512,999,9743,.40613E-4,.996E-5,0
STARLINK-32030,2024-183E,2026-07-02T19:02:42.288864,15.30182173,.0001482,53.1558,327.9305,98.9692,261.1477,0,U,61513,999,9727,-.63743E-4,-.2246E-4,0
STARLINK-31837,2024-183F,2026-07-02T18:44:28.205664,15.30179152,.0001511,53.1616,327.8400,83.6451,276.4722,0,U,61514,999,9727,-.56803E-4,-.204E-4,0
STARLINK-32136,2024-183G,2026-07-02T19:15:51.825888,15.31704564,.0001281,53.1607,327.2800,96.4235,263.6912,0,U,61515,999,9728,.12149E-4,.12E-6,0
STARLINK-32047,2024-183H,2026-07-02T03:02:39.309504,15.31699107,.00005138,53.1611,330.1619,103.2530,256.8529,0,U,61516,999,9718,.90965712E-4,.2459E-4,0
STARLINK-31756,2024-183J,2026-07-02T20:00:03.000384,15.34346993,.0001585,53.1609,327.7771,60.8988,113.1808,0,U,61517,999,580,.22505E-2,.76309E-3,0
STARLINK-32172,2024-183K,2026-07-02T02:55:55.942464,15.31700866,.00007226,53.1607,330.1310,103.5864,256.5218,0,U,61518,999,9718,-.18249612E-4,-.931E-5,0
STARLINK-32338,2024-183L,2026-07-02T20:00:03.000384,15.43163258,.0000962,53.1589,320.0657,39.5135,97.4313,0,U,61519,999,591,-.29412E-1,-.120382E-1,0
STARLINK-32306,2024-183M,2026-07-02T19:02:29.151744,15.31576609,.0001588,53.1603,327.2059,162.1477,197.9581,0,U,61520,999,9728,.20004E-2,.61986E-3,0
STARLINK-32297,2024-183N,2026-07-02T19:49:33.032928,15.30253747,.000051,53.1641,327.4052,281.2962,78.7982,0,U,61521,999,9728,.27876E-3,.792E-4,0
STARLINK-32260,2024-183P,2026-07-02T18:43:48.749376,15.33017657,.0001278,53.1612,327.1200,332.5964,27.4971,0,U,61522,999,9728,.87457E-3,.2802E-3,0
STARLINK-32305,2024-183Q,2026-07-02T18:58:08.137344,15.30177516,.0001337,53.1631,327.8975,208.2769,151.8160,0,U,61523,999,9727,-.62615E-4,-.2212E-4,0
STARLINK-32296,2024-183R,2026-07-02T19:56:04.170048,15.31685934,.0001636,53.1564,326.7292,73.4020,286.7161,0,U,61524,999,9729,-.10591E-3,-.3649E-4,0
STARLINK-32298,2024-183S,2026-07-02T18:48:59.652864,15.31697029,.0000979,53.1619,327.1446,90.2203,269.8910,0,U,61525,999,9728,-.15396E-4,-.843E-5,0
STARLINK-32293,2024-183T,2026-07-02T20:00:03.000384,15.33514013,.0001403,53.1606,327.9002,74.1132,58.6743,0,U,61526,999,585,.21148E-2,.6975E-3,0
STARLINK-32313,2024-183U,2026-07-02T19:22:26.213376,15.30195021,.0001531,53.1609,327.9959,84.4037,275.7139,0,U,61527,999,9727,.1302E-4,.26E-6,0
STARLINK-32319,2024-183V,2026-07-02T19:09:17.388288,15.31681342,.0001507,53.1625,327.9417,89.8547,270.2627,0,U,61528,999,9727,.59041E-4,.1466E-4,0
STARLINK-32351,2024-183W,2026-07-02T02:58:25.720320,15.30203598,.00012667,53.1622,328.0278,93.3277,266.7869,0,U,61529,999,9721,.11027887E-3,.2909E-4,0
STARLINK-32261,2024-183X,2026-07-02T16:14:40.836192,15.31696516,.0001557,53.1602,327.9161,81.2335,278.8843,0,U,61530,999,9726,-.11634E-4,-.726E-5,0
